{
  "type": "FeatureCollection",
  "features": [
    {
      "type": "Feature",
      "properties": {
        "norad_id": 2807,
        "name": "OPS 7218 (TRANSIT 16)",
        "group": "nnss",
        "lat": -35.070111869067766,
        "lon": -6.109791287703939,
        "alt_km": 1090.874448669997,
        "timestamp": "2025-12-09T14:52:26.430296+00:00",
        "meta_object_name": "OPS 7218 (TRANSIT 16)",
        "meta_object_id": "1967-048A",
        "meta_epoch": "2025-12-09T07:59:40.410240",
        "meta_mean_motion": 13.5072133,
        "meta_eccentricity": 0.00218125,
        "meta_inclination": 89.6731,
        "meta_ra_of_asc_node": 354.1293,
        "meta_arg_of_pericenter": 123.2021,
        "meta_mean_anomaly": 248.9195,
        "meta_ephemeris_type": 0,
        "meta_classification_type": "U",
        "meta_norad_cat_id": 2807,
        "meta_element_set_no": 999,
        "meta_rev_at_epoch": 88230,
        "meta_bstar": 0.00022648382,
        "meta_mean_motion_dot": 1.56e-06,
        "meta_mean_motion_ddot": 0,
        "tle_line1": "1 02807U 67048A   25343.33310660  .00000156  00000+0  22648-3 0  9997",
        "tle_line2": "2 02807  89.6731 354.1293 0021812 123.2021 248.9195 13.50721330882309"
      },
      "geometry": {
        "type": "Point",
        "coordinates": [
          -6.109791287703939,
          -35.070111869067766
        ]
      }
    },
    {
      "type": "Feature",
      "properties": {
        "norad_id": 2965,
        "name": "OPS 4947 (TRANSIT 17)",
        "group": "nnss",
        "lat": -0.6657170413738889,
        "lon": 24.665042244186115,
        "alt_km": 1077.2523387189904,
        "timestamp": "2025-12-09T14:52:26.430318+00:00",
        "meta_object_name": "OPS 4947 (TRANSIT 17)",
        "meta_object_id": "1967-092A",
        "meta_epoch": "2025-12-09T04:32:40.270272",
        "meta_mean_motion": 13.53452129,
        "meta_eccentricity": 0.00459875,
        "meta_inclination": 89.2499,
        "meta_ra_of_asc_node": 24.7065,
        "meta_arg_of_pericenter": 245.1537,
        "meta_mean_anomaly": 177.9997,
        "meta_ephemeris_type": 0,
        "meta_classification_type": "U",
        "meta_norad_cat_id": 2965,
        "meta_element_set_no": 999,
        "meta_rev_at_epoch": 87049,
        "meta_bstar": 0.00022947692,
        "meta_mean_motion_dot": 1.66e-06,
        "meta_mean_motion_ddot": 0,
        "tle_line1": "1 02965U 67092A   25343.18935498  .00000166  00000+0  22948-3 0  9990",
        "tle_line2": "2 02965  89.2499  24.7065 0045987 245.1537 177.9997 13.53452129870491"
      },
      "geometry": {
        "type": "Point",
        "coordinates": [
          24.665042244186115,
          -0.6657170413738889
        ]
      }
    },
    {
      "type": "Feature",
      "properties": {
        "norad_id": 3133,
        "name": "OPS 7034 (TRANSIT 18)",
        "group": "nnss",
        "lat": 10.677947160532426,
        "lon": 93.6351648385749,
        "alt_km": 1013.8941041390317,
        "timestamp": "2025-12-09T14:52:26.430332+00:00",
        "meta_object_name": "OPS 7034 (TRANSIT 18)",
        "meta_object_id": "1968-012A",
        "meta_epoch": "2025-12-09T07:29:45.033792",
        "meta_mean_motion": 13.5156455,
        "meta_eccentricity": 0.00735208,
        "meta_inclination": 90.0276,
        "meta_ra_of_asc_node": 273.6291,
        "meta_arg_of_pericenter": 179.0874,
        "meta_mean_anomaly": 295.335,
        "meta_ephemeris_type": 0,
        "meta_classification_type": "U",
        "meta_norad_cat_id": 3133,
        "meta_element_set_no": 999,
        "meta_rev_at_epoch": 56872,
        "meta_bstar": 0.00028816135,
        "meta_mean_motion_dot": 2e-06,
        "meta_mean_motion_ddot": 0,
        "tle_line1": "1 03133U 68012A   25343.31232678  .00000200  00000+0  28816-3 0  9995",
        "tle_line2": "2 03133  90.0276 273.6291 0073520 179.0874 295.3350 13.51564550568729"
      },
      "geometry": {
        "type": "Point",
        "coordinates": [
          93.6351648385749,
          10.677947160532426
        ]
      }
    },
    {
      "type": "Feature",
      "properties": {
        "norad_id": 4507,
        "name": "NNSS 19 (TRANSIT 19)",
        "group": "nnss",
        "lat": 36.98347124268424,
        "lon": 54.53592576230204,
        "alt_km": 1183.7162004498168,
        "timestamp": "2025-12-09T14:52:26.430344+00:00",
        "meta_object_name": "NNSS 19 (TRANSIT 19)",
        "meta_object_id": "1970-067A",
        "meta_epoch": "2025-12-09T05:16:19.450848",
        "meta_mean_motion": 13.51313929,
        "meta_eccentricity": 0.01707629,
        "meta_inclination": 90.0057,
        "meta_ra_of_asc_node": 234.5314,
        "meta_arg_of_pericenter": 303.6646,
        "meta_mean_anomaly": 54.8319,
        "meta_ephemeris_type": 0,
        "meta_classification_type": "U",
        "meta_norad_cat_id": 4507,
        "meta_element_set_no": 999,
        "meta_rev_at_epoch": 72174,
        "meta_bstar": 0.00032395612,
        "meta_mean_motion_dot": 2.38e-06,
        "meta_mean_motion_ddot": 0,
        "tle_line1": "1 04507U 70067A   25343.21966957  .00000238  00000+0  32396-3 0  9996",
        "tle_line2": "2 04507  90.0057 234.5314 0170762 303.6646  54.8319 13.51313929721740"
      },
      "geometry": {
        "type": "Point",
        "coordinates": [
          54.53592576230204,
          36.98347124268424
        ]
      }
    },
    {
      "type": "Feature",
      "properties": {
        "norad_id": 6909,
        "name": "NNSS 20 (TRANSIT 20)",
        "group": "nnss",
        "lat": -11.269615772326862,
        "lon": -104.92782604419192,
        "alt_km": 1014.447337683041,
        "timestamp": "2025-12-09T14:52:26.430356+00:00",
        "meta_object_name": "NNSS 20 (TRANSIT 20)",
        "meta_object_id": "1973-081A",
        "meta_epoch": "2025-12-09T06:10:24.982176",
        "meta_mean_motion": 13.71431877,
        "meta_eccentricity": 0.01566106,
        "meta_inclination": 89.8562,
        "meta_ra_of_asc_node": 255.1063,
        "meta_arg_of_pericenter": 88.6245,
        "meta_mean_anomaly": 273.2852,
        "meta_ephemeris_type": 0,
        "meta_classification_type": "U",
        "meta_norad_cat_id": 6909,
        "meta_element_set_no": 999,
        "meta_rev_at_epoch": 80313,
        "meta_bstar": 0.00036306441,
        "meta_mean_motion_dot": 3.68e-06,
        "meta_mean_motion_ddot": 0,
        "tle_line1": "1 06909U 73081A   25343.25723359  .00000368  00000+0  36306-3 0  9993",
        "tle_line2": "2 06909  89.8562 255.1063 0156610  88.6245 273.2852 13.71431877803134"
      },
      "geometry": {
        "type": "Point",
        "coordinates": [
          -104.92782604419192,
          -11.269615772326862
        ]
      }
    },
    {
      "type": "Feature",
      "properties": {
        "norad_id": 10457,
        "name": "TRANSAT",
        "group": "nnss",
        "lat": 4.8029786218619375,
        "lon": -101.32213386839767,
        "alt_km": 1061.3187516335329,
        "timestamp": "2025-12-09T14:52:26.430367+00:00",
        "meta_object_name": "TRANSAT",
        "meta_object_id": "1977-106A",
        "meta_epoch": "2025-12-09T07:10:55.407360",
        "meta_mean_motion": 13.48942869,
        "meta_eccentricity": 0.00250666,
        "meta_inclination": 89.6481,
        "meta_ra_of_asc_node": 78.7188,
        "meta_arg_of_pericenter": 199.5833,
        "meta_mean_anomaly": 220.1387,
        "meta_ephemeris_type": 0,
        "meta_classification_type": "U",
        "meta_norad_cat_id": 10457,
        "meta_element_set_no": 999,
        "meta_rev_at_epoch": 36697,
        "meta_bstar": 0.00021823652,
        "meta_mean_motion_dot": 1.47e-06,
        "meta_mean_motion_ddot": 0,
        "tle_line1": "1 10457U 77106A   25343.29925240  .00000147  00000+0  21824-3 0  9999",
        "tle_line2": "2 10457  89.6481  78.7188 0025066 199.5833 220.1387 13.48942869366979"
      },
      "geometry": {
        "type": "Point",
        "coordinates": [
          -101.32213386839767,
          4.8029786218619375
        ]
      }
    },
    {
      "type": "Feature",
      "properties": {
        "norad_id": 12458,
        "name": "NOVA 1",
        "group": "nnss",
        "lat": 4.320012898115419,
        "lon": 91.44041429461195,
        "alt_km": 1178.0578385946174,
        "timestamp": "2025-12-09T14:52:26.430379+00:00",
        "meta_object_name": "NOVA 1",
        "meta_object_id": "1981-044A",
        "meta_epoch": "2025-12-09T07:51:55.116000",
        "meta_mean_motion": 13.23277978,
        "meta_eccentricity": 0.00158079,
        "meta_inclination": 89.8523,
        "meta_ra_of_asc_node": 91.4334,
        "meta_arg_of_pericenter": 112.3663,
        "meta_mean_anomaly": 301.8764,
        "meta_ephemeris_type": 0,
        "meta_classification_type": "U",
        "meta_norad_cat_id": 12458,
        "meta_element_set_no": 999,
        "meta_rev_at_epoch": 15141,
        "meta_bstar": 0.00024038287,
        "meta_mean_motion_dot": 1.11e-06,
        "meta_mean_motion_ddot": 0,
        "tle_line1": "1 12458U 81044A   25343.32772125  .00000111  00000+0  24038-3 0  9995",
        "tle_line2": "2 12458  89.8523  91.4334 0015807 112.3663 301.8764 13.23277978151414"
      },
      "geometry": {
        "type": "Point",
        "coordinates": [
          91.44041429461195,
          4.320012898115419
        ]
      }
    }
  ]
}